{
    "links": {
        "self": "http://www.neowsapp.com/rest/v1/neo/3734612?api_key=iIulBulltgU6a56xZRHN4H3l9WmuAYTsLGpBGhQ2"
    },
    "id": "3734612",
    "neo_reference_id": "3734612",
    "name": "(2015 VW105)",
    "designation": "2015 VW105",
    "nasa_jpl_url": "http://ssd.jpl.nasa.gov/sbdb.cgi?sstr=3734612",
    "absolute_magnitude_h": 23.4,
    "estimated_diameter": {
        "kilometers": {
            "estimated_diameter_min": 0.0555334912,
            "estimated_diameter_max": 0.1241766613
        },
        "meters": {
            "estimated_diameter_min": 55.5334911581,
            "estimated_diameter_max": 124.1766612574
        },
        "miles": {
            "estimated_diameter_min": 0.0345069009,
            "estimated_diameter_max": 0.0771597762
        },
        "feet": {
            "estimated_diameter_min": 182.1964991311,
            "estimated_diameter_max": 407.4037573197
        }
    },
    "is_potentially_hazardous_asteroid": false,
    "close_approach_data": [
        {
            "close_approach_date": "2009-11-11",
            "close_approach_date_full": "2009-Nov-11 21:18",
            "epoch_date_close_approach": 1257974280000,
            "relative_velocity": {
                "kilometers_per_second": "23.8705707706",
                "kilometers_per_hour": "85934.0547742705",
                "miles_per_hour": "53396.0797568238"
            },
            "miss_distance": {
                "astronomical": "0.4833220814",
                "lunar": "188.0122896646",
                "kilometers": "72303953.901406618",
                "miles": "44927593.6341346084"
            },
            "orbiting_body": "Earth"
        },
        {
            "close_approach_date": "2015-11-30",
            "close_approach_date_full": "2015-Nov-30 17:20",
            "epoch_date_close_approach": 1448904000000,
            "relative_velocity": {
                "kilometers_per_second": "11.7880575223",
                "kilometers_per_hour": "42437.0070804013",
                "miles_per_hour": "26368.7058717083"
            },
            "miss_distance": {
                "astronomical": "0.0974392157",
                "lunar": "37.9038549073",
                "kilometers": "14576699.123190559",
                "miles": "9057540.8314013542"
            },
            "orbiting_body": "Earth"
        },
        {
            "close_approach_date": "2016-08-20",
            "close_approach_date_full": "2016-Aug-20 12:56",
            "epoch_date_close_approach": 1471697760000,
            "relative_velocity": {
                "kilometers_per_second": "9.354305274",
                "kilometers_per_hour": "33675.4989863239",
                "miles_per_hour": "20924.6454673633"
            },
            "miss_distance": {
                "astronomical": "0.4983010373",
                "lunar": "193.8391035097",
                "kilometers": "74544773.798870551",
                "miles": "46319974.5528575638"
            },
            "orbiting_body": "Earth"
        },
        {
            "close_approach_date": "2017-06-17",
            "close_approach_date_full": "2017-Jun-17 22:57",
            "epoch_date_close_approach": 1497740220000,
            "relative_velocity": {
                "kilometers_per_second": "21.7762695811",
                "kilometers_per_hour": "78394.570492068",
                "miles_per_hour": "48711.3374260297"
            },
            "miss_distance": {
                "astronomical": "0.4264102057",
                "lunar": "165.8735700173",
                "kilometers": "63790058.518981859",
                "miles": "39637304.3574692942"
            },
            "orbiting_body": "Earth"
        }
    ],
    "orbital_data": {
        "orbit_id": "9",
        "orbit_determination_date": "2017-04-06 08:30:39",
        "first_observation_date": "2015-11-12",
        "last_observation_date": "2015-11-22",
        "data_arc_in_days": 10,
        "observations_used": 54,
        "orbit_uncertainty": "8",
        "minimum_orbit_intersection": ".0502243",
        "jupiter_tisserand_invariant": "5.455",
        "epoch_osculation": "2457341.5",
        "eccentricity": ".3205919629876952",
        "semi_major_axis": "1.137415756165011",
        "inclination": "6.067253897094079",
        "ascending_node_longitude": "37.49967785343119",
        "orbital_period": "443.0750416395431",
        "perihelion_distance": ".7727694061629363",
        "perihelion_argument": "120.5455992919012",
        "aphelion_distance": "1.502062106167085",
        "perihelion_time": "2457419.006508647325",
        "mean_anomaly": "297.0256943162767",
        "mean_motion": ".8125034501331095",
        "equinox": "J2000",
        "orbit_class": {
            "orbit_class_type": "APO",
            "orbit_class_description": "Near-Earth asteroid orbits which cross the Earth’s orbit similar to that of 1862 Apollo",
            "orbit_class_range": "a (semi-major axis) > 1.0 AU; q (perihelion) < 1.017 AU"
        }
    },
    "is_sentry_object": false
}